NORAD_CAT_ID,OBJECT_NAME,OBJECT_TYPE,EPOCH,MEAN_MOTION,ECCENTRICITY,INCLINATION,RA_OF_ASC_NODE,ARG_OF_PERICENTER,MEAN_ANOMALY,BSTAR,MEAN_MOTION_DOT,MEAN_MOTION_DDOT,TLE_LINE0,TLE_LINE1,TLE_LINE2,SEMIMAJOR_AXIS,PERIOD,APOGEE,PERIGEE,DECAYED
55293.0,STARLINK-5287,PAYLOAD,2023-05-11 22:00:00,15.60233346,0.0003387,70.0009,113.0447,267.8106,138.662,-0.012553,-0.00932824,0.0,0 STARLINK-5287,1 55293U 23010AA  23131.91667824 -.00932824  00000-0 -12553-1 0  9990,2 55293  70.0009 113.0447 0003387 267.8106 138.6620 15.60233346  1306,6765.119,92.294,389.276,384.693,0.0
55293.0,STARLINK-5287,PAYLOAD,2023-05-12 06:00:00,15.59535811,0.0003257,70.0006,112.1215,275.4729,202.3136,-0.011968,-0.00871495,0.0,0 STARLINK-5287,1 55293U 23010AA  23132.25001157 -.00871495  00000-0 -11968-1 0  9994,2 55293  70.0006 112.1215 0003257 275.4729 202.3136 15.59535811 18206,6767.137,92.335,391.206,386.797,0.0
55293.0,STARLINK-5287,PAYLOAD,2023-05-12 12:00:00,15.59093622,0.0003345,70.0002,111.4294,276.4668,164.2609,-0.013347,-0.0094796,0.0,0 STARLINK-5287,1 55293U 23010AA  23132.50001157 -.00947960  00000-0 -13347-1 0  9996,2 55293  70.0002 111.4294 0003345 276.4668 164.2609 15.59093622  1305,6768.416,92.361,392.545,388.017,0.0
55293.0,STARLINK-5287,PAYLOAD,2023-05-12 22:00:00,15.58276817,0.000334,70.0004,110.2775,265.7896,352.219,-0.013502,-0.0093134,0.0,0 STARLINK-5287,1 55293U 23010AA  23132.91667824 -.00931340  00000-0 -13502-1 0  9998,2 55293  70.0004 110.2775 0003340 265.7896 352.2190 15.58276817  1309,6770.781,92.41,394.907,390.385,0.0
55293.0,STARLINK-5287,PAYLOAD,2023-05-13 00:00:02,15.58123527,0.0003441,70.0006,110.0472,268.3854,96.9995,-0.013976,-0.00955977,0.0,0 STARLINK-5287,1 55293U 23010AA  23133.00002315 -.00955977  00000-0 -13976-1 0  9994,2 55293  70.0006 110.0472 0003441 268.3854  96.9995 15.58123527 18311,6771.225,92.419,395.42,390.76,0.0
55293.0,STARLINK-5287,PAYLOAD,2023-05-13 14:00:01,15.56956298,0.0003335,70.0001,108.437,271.5622,123.5701,-0.014127,-0.00927572,0.0,0 STARLINK-5287,1 55293U 23010AA  23133.58334491 -.00927572  00000-0 -14127-1 0  9999,2 55293  70.0001 108.4370 0003335 271.5622 123.5701 15.56956298 18404,6774.609,92.488,398.733,394.215,0.0
55293.0,STARLINK-5287,PAYLOAD,2023-05-13 22:00:00,15.56321378,0.0003314,70.0003,107.5183,267.5517,194.9522,-0.014549,-0.00932398,0.0,0 STARLINK-5287,1 55293U 23010AA  23133.91667824 -.00932398  00000-0 -14549-1 0  9995,2 55293  70.0003 107.5183 0003314 267.5517 194.9522 15.56321378  1302,6776.451,92.526,400.562,396.071,0.0
55293.0,STARLINK-5287,PAYLOAD,2023-05-14 14:00:01,15.55001634,0.0003317,69.9997,105.6834,269.3043,325.631,-0.015263,-0.00931536,0.0,0 STARLINK-5287,1 55293U 23010AA  23134.58334491 -.00931536  00000-0 -15263-1 0  9997,2 55293  69.9997 105.6834 0003317 269.3043 325.6310 15.55001634  1307,6780.285,92.604,404.399,399.901,0.0
55293.0,STARLINK-5287,PAYLOAD,2023-05-14 22:00:00,15.54368823,0.0003566,70.0002,104.7673,265.531,34.4275,-0.015761,-0.00939111,0.0,0 STARLINK-5287,1 55293U 23010AA  23134.91667824 -.00939111  00000-0 -15761-1 0  9993,2 55293  70.0002 104.7673 0003566 265.5310  34.4275 15.54368823  1309,6782.125,92.642,406.409,401.571,0.0
55293.0,STARLINK-5287,PAYLOAD,2023-05-15 02:00:01,15.54024516,0.0003512,70.0003,104.3095,271.0299,241.1684,-0.015876,-0.00934539,0.0,0 STARLINK-5287,1 55293U 23010AA  23135.08334491 -.00934539  00000-0 -15876-1 0  9999,2 55293  70.0003 104.3095 0003512 271.0299 241.1684 15.54024516 18647,6783.127,92.663,407.374,402.609,0.0
55293.0,STARLINK-5287,PAYLOAD,2023-05-15 14:00:01,15.5303465,0.0003539,69.9997,102.9377,270.9276,156.77,-0.016011,-0.00911362,0.0,0 STARLINK-5287,1 55293U 23010AA  23135.58334491 -.00911362  00000-0 -16011-1 0  9995,2 55293  69.9997 102.9377 0003539 270.9276 156.7700 15.53034650  1309,6786.009,92.722,410.275,405.472,0.0
55293.0,STARLINK-5287,PAYLOAD,2023-05-15 22:00:00,15.5240893,0.0003452,70.0001,102.0242,266.5987,223.7763,-0.016884,-0.00950054,0.0,0 STARLINK-5287,1 55293U 23010AA  23135.91667824 -.00950054  00000-0 -16884-1 0  9990,2 55293  70.0001 102.0242 0003452 266.5987 223.7763 15.52408930 18772,6787.832,92.759,412.04,407.354,0.0
55293.0,STARLINK-5287,PAYLOAD,2023-05-16 14:00:01,15.51238438,0.0003468,69.9998,100.2,270.4334,343.0754,-0.0010209,-0.00059714,0.0,0 STARLINK-5287,1 55293U 23010AA  23136.58335648 -.00059714  00000-0 -10209-2 0  9999,2 55293  69.9998 100.2000 0003468 270.4334 343.0754 15.51238438 18873,6791.246,92.829,415.466,410.756,0.0
55293.0,STARLINK-5287,PAYLOAD,2023-05-16 22:00:00,15.51228331,0.0003523,70.0002,99.2887,265.6109,48.7293,0.00020111,0.00011668,0.0,0 STARLINK-5287,1 55293U 23010AA  23136.91667824  .00011668  00000-0  20111-3 0  9998,2 55293  70.0002  99.2887 0003523 265.6109  48.7293 15.51228331 18924,6791.276,92.83,415.533,410.748,0.0
55293.0,STARLINK-5287,PAYLOAD,2023-05-17 14:00:01,15.51235489,0.000352,69.9999,97.466,268.5989,167.6462,-0.00067869,-0.00039848,0.0,0 STARLINK-5287,1 55293U 23010AA  23137.58335648 -.00039848  00000-0 -67869-3 0  9991,2 55293  69.9999  97.4660 0003520 268.5989 167.6462 15.51235489 19034,6791.255,92.829,415.51,410.729,0.0
55293.0,STARLINK-5287,PAYLOAD,2023-05-17 22:00:00,15.5122759,0.0003537,70.0006,96.5548,263.7058,233.3742,0.00015211,8.781e-05,0.0,0 STARLINK-5287,1 55293U 23010AA  23137.91667824  .00008781  00000-0  15211-3 0  9996,2 55293  70.0006  96.5548 0003537 263.7058 233.3742 15.51227590  1300,6791.278,92.83,415.545,410.741,0.0
55293.0,STARLINK-5287,PAYLOAD,2023-05-18 06:00:00,15.51214455,0.0003566,70.0005,95.6434,269.4906,288.5152,0.00053083,0.00031128,0.0,0 STARLINK-5287,1 55293U 23010AA  23138.25001157  .00031128  00000-0  53083-3 0  9995,2 55293  70.0005  95.6434 0003566 269.4906 288.5152 15.51214455 19133,6791.316,92.83,415.603,410.759,0.0
55293.0,STARLINK-5287,PAYLOAD,2023-05-18 14:00:01,15.51234247,0.0003556,70.0004,94.7321,266.0665,352.8584,-0.00051262,-0.00030173,0.0,0 STARLINK-5287,1 55293U 23010AA  23138.58334491 -.00030173  00000-0 -51262-3 0  9999,2 55293  70.0004  94.7321 0003556 266.0665 352.8584 15.51234247  1306,6791.258,92.829,415.538,410.708,0.0
55293.0,STARLINK-5287,PAYLOAD,2023-05-18 22:00:00,15.51258801,0.0003654,70.0008,93.8208,262.6253,57.2011,-0.00083312,-0.00048864,0.0,0 STARLINK-5287,1 55293U 23010AA  23138.91667824 -.00048864  00000-0 -83312-3 0  9992,2 55293  70.0008  93.8208 0003654 262.6253  57.2011 15.51258801 19232,6791.187,92.828,415.533,410.57,0.0
55293.0,STARLINK-5287,PAYLOAD,2023-05-19 14:00:01,15.51317008,0.0003628,70.0008,91.9982,266.2446,175.4245,-0.016033,-0.00862347,0.0,0 STARLINK-5287,1 55293U 23010AA  23139.58334491 -.00862347  00000-0 -16033-1 0  9991,2 55293  70.0008  91.9982 0003628 266.2446 175.4245 15.51317008 19344,6791.017,92.824,415.346,410.418,0.0
55293.0,STARLINK-5287,PAYLOAD,2023-05-19 21:23:21,15.51166098,0.0003953,69.9989,91.1578,250.5639,109.512,-0.00011216,-6.735e-05,0.0,0 STARLINK-5287,1 55293U 23010AA  23139.89121679 -.00006735  00000-0 -11216-3 0  9998,2 55293  69.9989  91.1578 0003953 250.5639 109.5120 15.51166098 19692,6791.457,92.833,416.007,410.638,0.0
55293.0,STARLINK-5287,PAYLOAD,2023-05-20 05:11:19,15.48217647,0.0005525,69.9977,90.2864,50.8415,309.3259,-0.007152,-0.00361473,0.0,0 STARLINK-5287,1 55293U 23010AA  23140.21619784 -.00361473  00000-0 -71520-2 0  9991,2 55293  69.9977  90.2864 0005525  50.8415 309.3259 15.48217647 19435,6800.077,93.01,425.699,418.185,0.0
55293.0,STARLINK-5287,PAYLOAD,2023-05-20 14:00:01,15.49374957,0.0003246,70.001,89.2681,266.1718,355.1531,-0.017559,-0.00879561,0.0,0 STARLINK-5287,1 55293U 23010AA  23140.58334491 -.00879561  00000-0 -17559-1 0  9993,2 55293  70.0010  89.2681 0003246 266.1718 355.1531 15.49374957 19494,6796.69,92.941,420.762,416.349,0.0
55293.0,STARLINK-5287,PAYLOAD,2023-05-20 22:00:01,15.4877315,0.0003398,70.0015,88.3598,265.7708,53.9235,-0.01949,-0.00962274,0.0,0 STARLINK-5287,1 55293U 23010AA  23140.91668981 -.00962274  00000-0 -19490-1 0  9994,2 55293  70.0015  88.3598 0003398 265.7708  53.9235 15.48773150  1300,6798.451,92.977,422.626,418.006,0.0
55293.0,STARLINK-5287,PAYLOAD,2023-05-21 06:00:00,15.48076079,0.0003401,70.0014,87.4524,274.5026,102.6819,-0.018339,-0.00877809,0.0,0 STARLINK-5287,1 55293U 23010AA  23141.25001157 -.00877809  00000-0 -18339-1 0  9998,2 55293  70.0014  87.4524 0003401 274.5026 102.6819 15.48076079 19590,6800.492,93.019,424.669,420.044,0.0
55293.0,STARLINK-5287,PAYLOAD,2023-05-21 14:00:01,15.47408709,0.0003351,70.0013,86.5458,270.296,163.6546,-0.018437,-0.008635,0.0,0 STARLINK-5287,1 55293U 23010AA  23141.58334491 -.00863500  00000-0 -18437-1 0  9996,2 55293  70.0013  86.5458 0003351 270.2960 163.6546 15.47408709  1301,6802.447,93.059,426.591,422.032,0.0
55293.0,STARLINK-5287,PAYLOAD,2023-05-21 22:00:00,15.46813523,0.0003276,70.0016,85.6401,268.0459,221.8617,-0.020866,-0.0096203,0.0,0 STARLINK-5287,1 55293U 23010AA  23141.91667824 -.00962030  00000-0 -20866-1 0  9999,2 55293  70.0016  85.6401 0003276 268.0459 221.8617 15.46813523 19708,6804.192,93.095,428.286,423.828,0.0
55293.0,STARLINK-5287,PAYLOAD,2023-05-22 00:00:00,15.46628644,0.0003303,70.0015,85.4139,267.4891,326.3013,-0.020398,-0.00936657,0.0,0 STARLINK-5287,1 55293U 23010AA  23142.00001157 -.00936657  00000-0 -20398-1 0  9997,2 55293  70.0015  85.4139 0003303 267.4891 326.3013 15.46628644  1303,6804.734,93.106,428.846,424.351,0.0
55293.0,STARLINK-5287,PAYLOAD,2023-05-22 12:58:48,15.47326813,0.0001679,69.9993,83.9529,296.1428,63.9583,-0.0049768,-0.00247216,0.0,0 STARLINK-5287,1 55293U 23010AA  23142.54083654 -.00247216  00000-0 -49768-2 0  9997,2 55293  69.9993  83.9529 0001679 296.1428  63.9583 15.47326813 20109,6802.687,93.064,425.694,423.41,0.0
55293.0,STARLINK-5287,PAYLOAD,2023-05-22 14:00:01,15.45453204,0.0003234,70.0014,83.8316,268.0499,331.4825,-0.019738,-0.00863869,0.0,0 STARLINK-5287,1 55293U 23010AA  23142.58334491 -.00863869  00000-0 -19738-1 0  9990,2 55293  70.0014  83.8316 0003234 268.0499 331.4825 15.45453204 19804,6808.184,93.177,432.251,427.847,0.0
